NORAD_CAT_ID,OBJECT_NAME,OBJECT_TYPE,EPOCH,MEAN_MOTION,ECCENTRICITY,INCLINATION,RA_OF_ASC_NODE,ARG_OF_PERICENTER,MEAN_ANOMALY,BSTAR,MEAN_MOTION_DOT,MEAN_MOTION_DDOT,TLE_LINE0,TLE_LINE1,TLE_LINE2,SEMIMAJOR_AXIS,PERIOD,APOGEE,PERIGEE,DECAYED
52274.0,STARLINK-3790,PAYLOAD,2023-06-16 23:03:30,15.08837465,9.5e-05,53.2169,263.6104,99.7151,260.3948,5.3695e-05,5.67e-06,0.0,0 STARLINK-3790,1 52274U 22041P   23167.96076547  .00000567  00000-0  53695-4 0  9992,2 52274  53.2169 263.6104 0000950  99.7151 260.3948 15.08837465 65118,6917.888,95.438,540.41,539.096,0.0
52274.0,STARLINK-3790,PAYLOAD,2023-06-17 07:00:26,15.08828235,0.0001203,53.2177,262.1291,119.4444,240.6669,-9.7631e-06,-4.43e-06,0.0,0 STARLINK-3790,1 52274U 22041P   23168.29197472 -.00000443  00000-0 -97631-5 0  9994,2 52274  53.2177 262.1291 0001203 119.4444 240.6669 15.08828235 65166,6917.916,95.438,540.614,538.949,0.0
52274.0,STARLINK-3790,PAYLOAD,2023-06-17 13:21:59,15.08827536,0.0001109,53.217,260.9343,115.6629,244.4478,-3.1528e-05,-7.89e-06,0.0,0 STARLINK-3790,1 52274U 22041P   23168.55693728 -.00000789  00000-0 -31528-4 0  9993,2 52274  53.2170 260.9343 0001109 115.6629 244.4478 15.08827536 63982,6917.918,95.438,540.551,539.016,0.0
52274.0,STARLINK-3790,PAYLOAD,2023-06-17 16:32:45,15.08830624,0.0001007,53.2166,260.3385,114.5774,245.5323,-8.1053e-05,-1.577e-05,0.0,0 STARLINK-3790,1 52274U 22041P   23168.68941053 -.00001577  00000-0 -81053-4 0  9998,2 52274  53.2166 260.3385 0001007 114.5774 245.5323 15.08830624 64000,6917.909,95.438,540.471,539.077,0.0
52274.0,STARLINK-3790,PAYLOAD,2023-06-17 22:54:17,15.08832225,9.17e-05,53.2163,259.1488,112.3744,247.7345,-2.6829e-05,-7.15e-06,0.0,0 STARLINK-3790,1 52274U 22041P   23168.95437136 -.00000715  00000-0 -26829-4 0  9993,2 52274  53.2163 259.1488 0000917 112.3744 247.7345 15.08832225 65265,6917.904,95.438,540.404,539.135,0.0
52274.0,STARLINK-3790,PAYLOAD,2023-06-18 14:48:08,15.0884497,8.05e-05,53.216,256.1746,108.9549,251.153,9.6254e-05,1.245e-05,0.0,0 STARLINK-3790,1 52274U 22041P   23169.61676658  .00001245  00000-0  96254-4 0  9997,2 52274  53.2160 256.1746 0000805 108.9549 251.1530 15.08844970 65362,6917.865,95.437,540.287,539.173,0.0
52274.0,STARLINK-3790,PAYLOAD,2023-06-19 05:06:37,15.08840925,8.26e-05,53.216,253.4986,107.9858,252.1224,0.00032506,4.889e-05,0.0,0 STARLINK-3790,1 52274U 22041P   23170.21293209  .00004889  00000-0  32506-3 0  9998,2 52274  53.2160 253.4986 0000826 107.9858 252.1224 15.08840925 65450,6917.878,95.437,540.314,539.171,0.0
52274.0,STARLINK-3790,PAYLOAD,2023-06-19 17:49:41,15.08856288,8.88e-05,53.2153,251.1202,97.8127,262.2966,0.00043169,6.592e-05,0.0,0 STARLINK-3790,1 52274U 22041P   23170.74284471  .00006592  00000-0  43169-3 0  9997,2 52274  53.2153 251.1202 0000888  97.8127 262.2966 15.08856288 64310,6917.831,95.437,540.31,539.081,0.0
52274.0,STARLINK-3790,PAYLOAD,2023-06-20 06:32:46,15.08850897,4.08e-05,53.2158,248.7408,104.1528,255.9509,0.00015177,2.129e-05,0.0,0 STARLINK-3790,1 52274U 22041P   23171.27276144  .00002129  00000-0  15177-3 0  9994,2 52274  53.2158 248.7408 0000408 104.1528 255.9509 15.08850897 65616,6917.847,95.437,539.994,539.43,0.0
52274.0,STARLINK-3790,PAYLOAD,2023-06-20 11:18:55,15.08861805,5.87e-05,53.2157,247.8486,94.6284,265.4776,0.00036081,5.463e-05,0.0,0 STARLINK-3790,1 52274U 22041P   23171.47147670  .00005463  00000-0  36081-3 0  9998,2 52274  53.2157 247.8486 0000587  94.6284 265.4776 15.08861805 64422,6917.814,95.436,540.085,539.273,0.0
52274.0,STARLINK-3790,PAYLOAD,2023-06-20 22:26:37,15.08855968,3.02e-05,53.2142,245.7649,185.3024,174.7965,0.00022656,3.322e-05,0.0,0 STARLINK-3790,1 52274U 22041P   23171.93515348  .00003322  00000-0  22656-3 0  9995,2 52274  53.2142 245.7649 0000302 185.3024 174.7965 15.08855968 65717,6917.832,95.437,539.906,539.488,0.0
52274.0,STARLINK-3790,PAYLOAD,2023-06-21 11:09:43,15.08829765,0.0001175,53.2148,243.3875,88.5434,271.5693,-0.00022094,-3.801e-05,0.0,0 STARLINK-3790,1 52274U 22041P   23172.46508826 -.00003801  00000-0 -22094-3 0  9997,2 52274  53.2148 243.3875 0001175  88.5434 271.5693 15.08829765 65794,6917.912,95.438,540.59,538.964,0.0
52274.0,STARLINK-3790,PAYLOAD,2023-06-22 11:00:30,15.08840787,8.04e-05,53.2162,238.9265,85.9653,274.1431,2.391e-06,-2.5e-06,0.0,0 STARLINK-3790,1 52274U 22041P   23173.45868902 -.00000250  00000-0  23910-5 0  9995,2 52274  53.2162 238.9265 0000804  85.9653 274.1431 15.08840787 65948,6917.878,95.438,540.299,539.187,0.0
52274.0,STARLINK-3790,PAYLOAD,2023-06-24 02:45:09,15.08839361,9.87e-05,53.215,231.4958,79.7244,280.3859,0.00013547,1.869e-05,0.0,0 STARLINK-3790,1 52274U 22041P   23175.11469548  .00001869  00000-0  13547-3 0  9992,2 52274  53.2150 231.4958 0000987  79.7244 280.3859 15.08839361 66198,6917.882,95.438,540.43,539.065,0.0
52274.0,STARLINK-3790,PAYLOAD,2023-06-25 10:32:52,15.08842996,0.0001033,53.2158,225.5464,90.1119,269.9991,7.2661e-05,8.69e-06,0.0,0 STARLINK-3790,1 52274U 22041P   23176.43949526  .00000869  00000-0  72661-4 0  9999,2 52274  53.2158 225.5464 0001033  90.1119 269.9991 15.08842996 66393,6917.871,95.437,540.451,539.022,0.0
52274.0,STARLINK-3790,PAYLOAD,2023-06-26 02:26:44,15.08832525,0.0001095,53.2139,222.5711,91.1275,268.9842,2.2815e-05,7.5e-07,0.0,0 STARLINK-3790,1 52274U 22041P   23177.10190015  .00000075  00000-0  22815-4 0  9990,2 52274  53.2139 222.5711 0001095  91.1275 268.9842 15.08832525 66498,6917.903,95.438,540.526,539.011,0.0
52274.0,STARLINK-3790,PAYLOAD,2023-06-26 08:48:17,15.08815873,0.0001114,53.2157,221.3833,100.7238,259.388,0.00036369,5.501e-05,0.0,0 STARLINK-3790,1 52274U 22041P   23177.36686763  .00005501  00000-0  36369-3 0  9995,2 52274  53.2157 221.3833 0001114 100.7238 259.3880 15.08815873 66536,6917.954,95.439,540.59,539.048,0.0
52274.0,STARLINK-3790,PAYLOAD,2023-06-26 13:34:26,15.08838663,0.0001102,53.2156,220.4909,94.983,265.1288,9.0999e-05,1.161e-05,0.0,0 STARLINK-3790,1 52274U 22041P   23177.56557959  .00001161  00000-0  90999-4 0  9999,2 52274  53.2156 220.4909 0001102  94.9830 265.1288 15.08838663 66560,6917.884,95.438,540.512,538.987,0.0
52274.0,STARLINK-3790,PAYLOAD,2023-06-27 02:17:31,15.08826717,0.0001095,53.2149,218.1105,93.465,266.6467,0.00018371,2.636e-05,0.0,0 STARLINK-3790,1 52274U 22041P   23178.09550571  .00002636  00000-0  18371-3 0  9992,2 52274  53.2149 218.1105 0001095  93.4650 266.6467 15.08826717 66640,6917.921,95.438,540.544,539.028,0.0
52274.0,STARLINK-3790,PAYLOAD,2023-06-27 10:14:26,15.08842656,9.3e-05,53.215,216.6237,112.0907,248.0184,5.8011e-05,6.36e-06,0.0,0 STARLINK-3790,1 52274U 22041P   23178.42669743  .00000636  00000-0  58011-4 0  9995,2 52274  53.2150 216.6237 0000930 112.0907 248.0184 15.08842656 66696,6917.872,95.437,540.381,539.094,0.0
52274.0,STARLINK-3790,PAYLOAD,2023-06-27 19:46:46,15.08837351,0.0001024,53.2153,214.8402,90.127,269.984,-1.1812e-05,-4.76e-06,0.0,0 STARLINK-3790,1 52274U 22041P   23178.82414423 -.00000476  00000-0 -11812-4 0  9994,2 52274  53.2153 214.8402 0001024  90.1270 269.9840 15.08837351 66751,6917.888,95.438,540.462,539.045,0.0
52274.0,STARLINK-3790,PAYLOAD,2023-06-29 08:20:37,15.08854001,9.99e-05,53.2153,207.9986,93.3239,266.7867,-0.0001169,-2.148e-05,0.0,0 STARLINK-3790,1 52274U 22041P   23180.34765948 -.00002148  00000-0 -11690-3 0  9996,2 52274  53.2153 207.9986 0000999  93.3239 266.7867 15.08854001 66981,6917.838,95.437,540.394,539.012,0.0
52274.0,STARLINK-3790,PAYLOAD,2023-07-01 08:02:12,15.08837488,9.91e-05,53.2154,199.0789,85.2318,274.8787,5.4249e-06,-2.01e-06,0.0,0 STARLINK-3790,1 52274U 22041P   23182.33486592 -.00000201  00000-0  54249-5 0  9998,2 52274  53.2154 199.0789 0000991  85.2318 274.8787 15.08837488 67289,6917.888,95.438,540.439,539.068,0.0
52274.0,STARLINK-3790,PAYLOAD,2023-07-02 09:28:22,15.08839985,9.77e-05,53.2155,194.3212,84.0611,276.0492,8.0609e-06,-1.59e-06,0.0,0 STARLINK-3790,1 52274U 22041P   23183.39470443 -.00000159  00000-0  80609-5 0  9994,2 52274  53.2155 194.3212 0000977  84.0611 276.0492 15.08839985 67445,6917.88,95.438,540.421,539.07,0.0
52274.0,STARLINK-3790,PAYLOAD,2023-07-03 10:54:33,15.08835906,9.94e-05,53.2156,189.5631,81.2334,278.8771,3.3352e-05,2.43e-06,0.0,0 STARLINK-3790,1 52274U 22041P   23184.45454865  .00000243  00000-0  33352-4 0  9997,2 52274  53.2156 189.5631 0000994  81.2334 278.8771 15.08835906 67604,6917.893,95.438,540.446,539.07,0.0
52274.0,STARLINK-3790,PAYLOAD,2023-07-04 09:10:01,15.08770776,8.93e-05,53.2153,185.4001,132.0787,228.0282,-0.00055248,-9.053e-05,0.0,0 STARLINK-3790,1 52274U 22041P   23185.38196337 -.00009053  00000-0 -55248-3 0  9994,2 52274  53.2153 185.4001 0000893 132.0787 228.0282 15.08770776 67744,6918.092,95.442,540.575,539.339,0.0
52274.0,STARLINK-3790,PAYLOAD,2023-07-04 17:06:52,15.08836541,0.0001038,53.2159,183.914,85.8844,274.2266,4.4311e-05,4.17e-06,0.0,0 STARLINK-3790,1 52274U 22041P   23185.71310940  .00000417  00000-0  44311-4 0  9992,2 52274  53.2159 183.9140 0001038  85.8844 274.2266 15.08836541 67791,6917.891,95.438,540.474,539.038,0.0
52274.0,STARLINK-3790,PAYLOAD,2023-07-05 16:57:40,15.08820542,0.0001167,53.2165,179.4531,82.9339,277.1786,0.00031453,4.719e-05,0.0,0 STARLINK-3790,1 52274U 22041P   23186.70671361  .00004719  00000-0  31453-3 0  9990,2 52274  53.2165 179.4531 0001167  82.9339 277.1786 15.08820542 67942,6917.94,95.439,540.612,538.998,0.0
52274.0,STARLINK-3790,PAYLOAD,2023-07-06 05:40:44,15.08839849,0.0001011,53.2162,177.0742,82.0663,278.0444,4.5814e-05,4.41e-06,0.0,0 STARLINK-3790,1 52274U 22041P   23187.23662777  .00000441  00000-0  45814-4 0  9995,2 52274  53.2162 177.0742 0001011  82.0663 278.0444 15.08839849 68027,6917.881,95.438,540.445,539.046,0.0
52274.0,STARLINK-3790,PAYLOAD,2023-07-07 08:42:17,15.08845936,0.0001126,53.2166,172.0192,81.4765,278.6354,5.7754e-05,6.32e-06,0.0,0 STARLINK-3790,1 52274U 22041P   23188.36270236  .00000632  00000-0  57754-4 0  9993,2 52274  53.2166 172.0192 0001126  81.4765 278.6354 15.08845936 68196,6917.862,95.437,540.506,538.948,0.0
